IRIDIUM 36              
1 24967U 97056C   24344.45587294  .00001071  00000+0  35303-3 0  9991
2 24967  86.3971 252.6524 0001983  80.3539 279.7882 14.37283217424965
IRIDIUM 39              
1 25042U 97069D   24344.56546500  .00001928  00000+0  50569-3 0  9999
2 25042  86.3898 292.4370 0016384 214.3481 145.6665 14.48703804421503
IRIDIUM 38              
1 25043U 97069E   24344.40585486  .00001386  00000+0  45410-3 0  9996
2 25043  86.3942 313.0238 0003080  49.0353 311.1111 14.37768664418681
IRIDIUM 42              
1 25077U 97077A   24344.45932257  .00001257  00000+0  42586-3 0  9997
2 25077  86.3947 318.9383 0002630  72.4291 287.7193 14.36030310413962
IRIDIUM 44              
1 25078U 97077B   24344.36857370  .00001325  00000+0  41571-3 0  9999
2 25078  86.3938 301.3973 0001059  33.6746 326.4520 14.39899162416387
IRIDIUM 45              
1 25104U 97082A   24344.37400814  .00023791  00000+0  10799-2 0  9991
2 25104  86.3631 139.3850 0137073 318.6271  40.4646 15.12551237423251
IRIDIUM 24              
1 25105U 97082B   24344.51467515  .00001236  00000+0  37288-3 0  9992
2 25105  86.3922 160.6990 0011156 355.1487   4.9603 14.41721233415889
IRIDIUM 51              
1 25262U 98018A   24344.72762989  .00040236  00000+0  13849-2 0  9991
2 25262  86.3910 148.4506 0115890 250.4521 108.4180 15.23600909418243
